CCSDS_OMM_VERS = 2.0
CREATION_DATE  = 
ORIGINATOR     = 

OBJECT_NAME    = STARLINK-35732
OBJECT_ID      = 2025-294H
CENTER_NAME    = EARTH
REF_FRAME      = TEME
TIME_SYSTEM    = UTC
MEAN_ELEMENT_THEORY = SGP/SGP4

EPOCH          = 2025-12-26T14:00:04.000032
MEAN_MOTION    = 15.65407655
ECCENTRICITY   = .0001293
INCLINATION    = 42.9995
RA_OF_ASC_NODE = 97.6657
ARG_OF_PERICENTER = 277.4052
MEAN_ANOMALY   = 349.9522

EPHEMERIS_TYPE = 0
CLASSIFICATION_TYPE = U
NORAD_CAT_ID   = 67037
ELEMENT_SET_NO = 999
REV_AT_EPOCH   = 244
BSTAR          = -.21393579E-1
MEAN_MOTION_DOT = -.1940441E-1
MEAN_MOTION_DDOT = 0

CCSDS_OMM_VERS = 2.0
CREATION_DATE  = 
ORIGINATOR     = 

OBJECT_NAME    = STARLINK-35775
OBJECT_ID      = 2025-294J
CENTER_NAME    = EARTH
REF_FRAME      = TEME
TIME_SYSTEM    = UTC
MEAN_ELEMENT_THEORY = SGP/SGP4

EPOCH          = 2025-12-26T14:00:04.000032
MEAN_MOTION    = 15.65399142
ECCENTRICITY   = .00013304
INCLINATION    = 42.9994
RA_OF_ASC_NODE = 97.6605
ARG_OF_PERICENTER = 277.3479
MEAN_ANOMALY   = 352.0315

EPHEMERIS_TYPE = 0
CLASSIFICATION_TYPE = U
NORAD_CAT_ID   = 67038
ELEMENT_SET_NO = 999
REV_AT_EPOCH   = 244
BSTAR          = -.2142621E-1
MEAN_MOTION_DOT = -.1942488E-1
MEAN_MOTION_DDOT = 0

CCSDS_OMM_VERS = 2.0
CREATION_DATE  = 
ORIGINATOR     = 

OBJECT_NAME    = STARLINK-35705
OBJECT_ID      = 2025-294K
CENTER_NAME    = EARTH
REF_FRAME      = TEME
TIME_SYSTEM    = UTC
MEAN_ELEMENT_THEORY = SGP/SGP4

EPOCH          = 2025-12-26T14:00:04.000032
MEAN_MOTION    = 15.65379079
ECCENTRICITY   = .00013678
INCLINATION    = 42.9991
RA_OF_ASC_NODE = 97.6502
ARG_OF_PERICENTER = 278.7489
MEAN_ANOMALY   = 354.7301

EPHEMERIS_TYPE = 0
CLASSIFICATION_TYPE = U
NORAD_CAT_ID   = 67039
ELEMENT_SET_NO = 999
REV_AT_EPOCH   = 233
BSTAR          = -.21455112E-1
MEAN_MOTION_DOT = -.1943434E-1
MEAN_MOTION_DDOT = 0

CCSDS_OMM_VERS = 2.0
CREATION_DATE  = 
ORIGINATOR     = 

OBJECT_NAME    = STARLINK-35786
OBJECT_ID      = 2025-294L
CENTER_NAME    = EARTH
REF_FRAME      = TEME
TIME_SYSTEM    = UTC
MEAN_ELEMENT_THEORY = SGP/SGP4

EPOCH          = 2025-12-26T14:00:04.000032
MEAN_MOTION    = 15.65386891
ECCENTRICITY   = .00013395
INCLINATION    = 42.9994
RA_OF_ASC_NODE = 97.6557
ARG_OF_PERICENTER = 276.8763
MEAN_ANOMALY   = 354.5933

EPHEMERIS_TYPE = 0
CLASSIFICATION_TYPE = U
NORAD_CAT_ID   = 67040
ELEMENT_SET_NO = 999
REV_AT_EPOCH   = 233
BSTAR          = -.21430898E-1
MEAN_MOTION_DOT = -.194202E-1
MEAN_MOTION_DDOT = 0

CCSDS_OMM_VERS = 2.0
CREATION_DATE  = 
ORIGINATOR     = 

OBJECT_NAME    = STARLINK-35765
OBJECT_ID      = 2025-294M
CENTER_NAME    = EARTH
REF_FRAME      = TEME
TIME_SYSTEM    = UTC
MEAN_ELEMENT_THEORY = SGP/SGP4

EPOCH          = 2025-12-26T14:00:04.000032
MEAN_MOTION    = 15.65372560
ECCENTRICITY   = .00013261
INCLINATION    = 42.9990
RA_OF_ASC_NODE = 97.6450
ARG_OF_PERICENTER = 276.1685
MEAN_ANOMALY   = 359.2885

EPHEMERIS_TYPE = 0
CLASSIFICATION_TYPE = U
NORAD_CAT_ID   = 67041
ELEMENT_SET_NO = 999
REV_AT_EPOCH   = 233
BSTAR          = -.21445752E-1
MEAN_MOTION_DOT = -.1942204E-1
MEAN_MOTION_DDOT = 0

CCSDS_OMM_VERS = 2.0
CREATION_DATE  = 
ORIGINATOR     = 

OBJECT_NAME    = STARLINK-35773
OBJECT_ID      = 2025-294N
CENTER_NAME    = EARTH
REF_FRAME      = TEME
TIME_SYSTEM    = UTC
MEAN_ELEMENT_THEORY = SGP/SGP4

EPOCH          = 2025-12-26T14:00:04.000032
MEAN_MOTION    = 15.65364733
ECCENTRICITY   = .0001365
INCLINATION    = 42.9992
RA_OF_ASC_NODE = 97.6399
ARG_OF_PERICENTER = 277.3232
MEAN_ANOMALY   = 0.1883

EPHEMERIS_TYPE = 0
CLASSIFICATION_TYPE = U
NORAD_CAT_ID   = 67042
ELEMENT_SET_NO = 999
REV_AT_EPOCH   = 252
BSTAR          = -.21502978E-1
MEAN_MOTION_DOT = -.1946259E-1
MEAN_MOTION_DDOT = 0

CCSDS_OMM_VERS = 2.0
CREATION_DATE  = 
ORIGINATOR     = 

OBJECT_NAME    = STARLINK-35901
OBJECT_ID      = 2025-294P
CENTER_NAME    = EARTH
REF_FRAME      = TEME
TIME_SYSTEM    = UTC
MEAN_ELEMENT_THEORY = SGP/SGP4

EPOCH          = 2025-12-26T14:00:04.000032
MEAN_MOTION    = 15.65351300
ECCENTRICITY   = .00013628
INCLINATION    = 42.9991
RA_OF_ASC_NODE = 97.6349
ARG_OF_PERICENTER = 278.7401
MEAN_ANOMALY   = 0.8188

EPHEMERIS_TYPE = 0
CLASSIFICATION_TYPE = U
NORAD_CAT_ID   = 67043
ELEMENT_SET_NO = 999
REV_AT_EPOCH   = 252
BSTAR          = -.2145202E-1
MEAN_MOTION_DOT = -.1941256E-1
MEAN_MOTION_DDOT = 0

CCSDS_OMM_VERS = 2.0
CREATION_DATE  = 
ORIGINATOR     = 

OBJECT_NAME    = STARLINK-35884
OBJECT_ID      = 2025-294Q
CENTER_NAME    = EARTH
REF_FRAME      = TEME
TIME_SYSTEM    = UTC
MEAN_ELEMENT_THEORY = SGP/SGP4

EPOCH          = 2025-12-26T14:00:04.000032
MEAN_MOTION    = 15.65344648
ECCENTRICITY   = .0001406
INCLINATION    = 42.9994
RA_OF_ASC_NODE = 97.6299
ARG_OF_PERICENTER = 278.6491
MEAN_ANOMALY   = 2.9279

EPHEMERIS_TYPE = 0
CLASSIFICATION_TYPE = U
NORAD_CAT_ID   = 67044
ELEMENT_SET_NO = 999
REV_AT_EPOCH   = 252
BSTAR          = -.21470995E-1
MEAN_MOTION_DOT = -.1942341E-1
MEAN_MOTION_DDOT = 0

CCSDS_OMM_VERS = 2.0
CREATION_DATE  = 
ORIGINATOR     = 

OBJECT_NAME    = STARLINK-35891
OBJECT_ID      = 2025-294R
CENTER_NAME    = EARTH
REF_FRAME      = TEME
TIME_SYSTEM    = UTC
MEAN_ELEMENT_THEORY = SGP/SGP4

EPOCH          = 2025-12-26T14:00:04.000032
MEAN_MOTION    = 15.65324757
ECCENTRICITY   = .00013894
INCLINATION    = 42.9996
RA_OF_ASC_NODE = 97.6244
ARG_OF_PERICENTER = 277.4750
MEAN_ANOMALY   = 6.2906

EPHEMERIS_TYPE = 0
CLASSIFICATION_TYPE = U
NORAD_CAT_ID   = 67045
ELEMENT_SET_NO = 999
REV_AT_EPOCH   = 244
BSTAR          = -.21490453E-1
MEAN_MOTION_DOT = -.1942501E-1
MEAN_MOTION_DDOT = 0

CCSDS_OMM_VERS = 2.0
CREATION_DATE  = 
ORIGINATOR     = 

OBJECT_NAME    = STARLINK-35721
OBJECT_ID      = 2025-294S
CENTER_NAME    = EARTH
REF_FRAME      = TEME
TIME_SYSTEM    = UTC
MEAN_ELEMENT_THEORY = SGP/SGP4

EPOCH          = 2025-12-26T14:00:04.000032
MEAN_MOTION    = 15.65308953
ECCENTRICITY   = .00013724
INCLINATION    = 42.9996
RA_OF_ASC_NODE = 97.6193
ARG_OF_PERICENTER = 275.9882
MEAN_ANOMALY   = 9.8676

EPHEMERIS_TYPE = 0
CLASSIFICATION_TYPE = U
NORAD_CAT_ID   = 67046
ELEMENT_SET_NO = 999
REV_AT_EPOCH   = 252
BSTAR          = -.21459909E-1
MEAN_MOTION_DOT = -.1938958E-1
MEAN_MOTION_DDOT = 0

CCSDS_OMM_VERS = 2.0
CREATION_DATE  = 
ORIGINATOR     = 

OBJECT_NAME    = STARLINK-35779
OBJECT_ID      = 2025-294T
CENTER_NAME    = EARTH
REF_FRAME      = TEME
TIME_SYSTEM    = UTC
MEAN_ELEMENT_THEORY = SGP/SGP4

EPOCH          = 2025-12-26T14:00:04.000032
MEAN_MOTION    = 15.65289753
ECCENTRICITY   = .00014015
INCLINATION    = 42.9994
RA_OF_ASC_NODE = 97.6140
ARG_OF_PERICENTER = 277.9167
MEAN_ANOMALY   = 10.1279

EPHEMERIS_TYPE = 0
CLASSIFICATION_TYPE = U
NORAD_CAT_ID   = 67047
ELEMENT_SET_NO = 999
REV_AT_EPOCH   = 233
BSTAR          = -.215526E-1
MEAN_MOTION_DOT = -.1945033E-1
MEAN_MOTION_DDOT = 0

CCSDS_OMM_VERS = 2.0
CREATION_DATE  = 
ORIGINATOR     = 

OBJECT_NAME    = STARLINK-35905
OBJECT_ID      = 2025-294U
CENTER_NAME    = EARTH
REF_FRAME      = TEME
TIME_SYSTEM    = UTC
MEAN_ELEMENT_THEORY = SGP/SGP4

EPOCH          = 2025-12-26T14:00:04.000032
MEAN_MOTION    = 15.65285342
ECCENTRICITY   = .00014102
INCLINATION    = 42.9996
RA_OF_ASC_NODE = 97.6092
ARG_OF_PERICENTER = 278.8150
MEAN_ANOMALY   = 11.1749

EPHEMERIS_TYPE = 0
CLASSIFICATION_TYPE = U
NORAD_CAT_ID   = 67048
ELEMENT_SET_NO = 999
REV_AT_EPOCH   = 244
BSTAR          = -.2152321E-1
MEAN_MOTION_DOT = -.1942394E-1
MEAN_MOTION_DDOT = 0

