STARLINK-35732          
1 67037U 25294H   25360.58337963 -.01940441  00000+0 -21394-1 0  9999
2 67037  42.9995  97.6657 0001293 277.4052 349.9522 15.65407655  2443
STARLINK-35775          
1 67038U 25294J   25360.58337963 -.01942488  00000+0 -21426-1 0  9999
2 67038  42.9994  97.6605 0001330 277.3479 352.0315 15.65399142  2446
STARLINK-35705          
1 67039U 25294K   25360.58337963 -.01943434  00000+0 -21455-1 0  9994
2 67039  42.9991  97.6502 0001367 278.7489 354.7301 15.65379079  2335
STARLINK-35786          
1 67040U 25294L   25360.58337963 -.01942020  00000+0 -21431-1 0  9990
2 67040  42.9994  97.6557 0001339 276.8763 354.5933 15.65386891  2332
STARLINK-35765          
1 67041U 25294M   25360.58337963 -.01942204  00000+0 -21446-1 0  9991
2 67041  42.9990  97.6450 0001326 276.1685 359.2885 15.65372560  2339
STARLINK-35773          
1 67042U 25294N   25360.58337963 -.01946259  00000+0 -21503-1 0  9990
2 67042  42.9992  97.6399 0001365 277.3232   0.1883 15.65364733  2522
STARLINK-35901          
1 67043U 25294P   25360.58337963 -.01941256  00000+0 -21452-1 0  9996
2 67043  42.9991  97.6349 0001362 278.7401   0.8188 15.65351300  2528
STARLINK-35884          
1 67044U 25294Q   25360.58337963 -.01942341  00000+0 -21471-1 0  9994
2 67044  42.9994  97.6299 0001406 278.6491   2.9279 15.65344648  2524
STARLINK-35891          
1 67045U 25294R   25360.58337963 -.01942501  00000+0 -21490-1 0  9994
2 67045  42.9996  97.6244 0001389 277.4750   6.2906 15.65324757  2446
STARLINK-35721          
1 67046U 25294S   25360.58337963 -.01938958  00000+0 -21460-1 0  9993
2 67046  42.9996  97.6193 0001372 275.9882   9.8676 15.65308953  2523
STARLINK-35779          
1 67047U 25294T   25360.58337963 -.01945033  00000+0 -21553-1 0  9999
2 67047  42.9994  97.6140 0001401 277.9167  10.1279 15.65289753  2334
STARLINK-35905          
1 67048U 25294U   25360.58337963 -.01942394  00000+0 -21523-1 0  9994
2 67048  42.9996  97.6092 0001410 278.8150  11.1749 15.65285342  2440
